ONEWEB-0474             
1 51654U 22012AJ  24110.24334654 -.00000103  00000+0 -33176-3 0  9995
2 51654  87.8982 193.0584 0001709 105.2015 254.9301 13.10369580105978
ONEWEB-0475             
1 51655U 22012AK  24110.54950781 -.00000003  00000+0 -41472-4 0  9992
2 51655  87.9211 162.8239 0001580 100.6869 259.4441 13.17648600109833
ONEWEB-0490             
1 54113U 22138A   24110.48829833  .00000074  00000+0  15189-3 0  9990
2 54113  87.9096 101.9446 0001831  92.1816 267.9526 13.19726301 72807
ONEWEB-0492             
1 54114U 22138B   24110.51358131  .00000051  00000+0  95125-4 0  9997
2 54114  87.9100 101.9392 0001780 100.4245 259.7089 13.19725658 72814
ONEWEB-0495             
1 54115U 22138C   24110.49146254  .00000026  00000+0  32443-4 0  9992
2 54115  87.9102 101.9552 0001159 105.2383 254.8878 13.19723754 72795
ONEWEB-0497             
1 54116U 22138D   24110.50410256  .00000043  00000+0  75761-4 0  9990
2 54116  87.9097 101.9433 0001803  91.4261 268.7078 13.19725679 72787
ONEWEB-0499             
1 54117U 22138E   24110.48672753  .00000053  00000+0  98902-4 0  9993
2 54117  87.9100 101.9457 0001684  72.0970 288.0347 13.19727104 72798
ONEWEB-0500             
1 54118U 22138F   24110.48989166  .00000040  00000+0  67660-4 0  9996
2 54118  87.9098 101.9426 0001936  93.4409 266.6945 13.19724685 72804
